HST                     
1 20580U 90037B   24350.91440700  .00008939  00000+0  37412-3 0  9991
2 20580  28.4664 204.1584 0001758 227.2211 132.8235 15.21785354704702
POLAR                   
1 23802U 96013A   24349.11624299  .00000204  00000+0  00000+0 0  9994
2 23802  79.2655 232.9020 5982739 227.6410  63.2968  1.29846678137718
SWAS                    
1 25560U 98071A   24350.85762310  .00005265  00000+0  39169-3 0  9997
2 25560  69.8957 195.6512 0006142 349.0632  11.0394 15.03550679414663
CXO                     
1 25867U 99040B   24347.67995738  .00000403  00000+0  00000+0 0  9999
2 25867  45.2638 139.9696 8693340 305.0901   0.0820  0.37810292 15235
XMM-NEWTON              
1 25989U 99066A   24349.90380838  .00000026  00000+0  00000+0 0  9990
2 25989  67.0695 290.3422 4981166  74.3225   0.1184  0.50136307 20256
TERRA                   
1 25994U 99068A   24351.17086587  .00001069  00000+0  23055-3 0  9991
2 25994  98.0260  49.1445 0003121 133.1994 248.8739 14.60313756329720
CLUSTER II-FM7 (SAMBA)  
1 26410U 00041A   24352.25357946  .00001301  00000+0  00000+0 0  9998
2 26410 141.5923   3.7081 7945916 218.9005 359.7628  0.44819616 29612
CLUSTER II-FM5 (RUMBA)  
1 26463U 00045A   24347.34741360  .00005316  00000+0  00000+0 0  9991
2 26463 153.4702  41.9789 8886622 258.5537   0.0393  0.42910680 17753
CLUSTER II-FM8 (TANGO)  
1 26464U 00045B   24347.81813187  .00001633  00000+0  00000+0 0  9999
2 26464 141.7279   3.8052 7938700 218.8549   0.1068  0.44415644 17852
ODIN                    
1 26702U 01007A   24350.77029068  .00020807  00000+0  69260-3 0  9990
2 26702  97.4649   6.1027 0007234  14.7770 345.3681 15.31142170304604
TIMED                   
1 26998U 01055B   24350.81524772  .00003332  00000+0  32482-3 0  9997
2 26998  74.0706 257.3629 0002847 250.9464 109.1411 14.92896831248917
INTEGRAL                
1 27540U 02048A   24349.62285729 -.00000418  00000+0  00000+0 0  9997
2 27540  90.5523  12.5328 8613814 276.7888 332.6721  0.37577085 24565
CORIOLIS                
1 27640U 03001A   24350.58163182  .00000319  00000+0  17152-3 0  9992
2 27640  98.7138 354.9311 0014024 357.2854   2.8244 14.19664061136376
SORCE                   
1 27651U 03004A   24350.81281455  .00007215  00000+0  60839-3 0  9999
2 27651  39.9906 138.6995 0019445  78.4365 281.8609 14.98100978189465
MOST                    
1 27843U 03031D   24350.85745729  .00000237  00000+0  12896-3 0  9992
2 27843  98.7069 355.2477 0010585  40.5215 319.6749 14.21111531112827
SCISAT 1                
1 27858U 03036A   24350.81318477  .00001409  00000+0  19051-3 0  9997
2 27858  73.9290 179.9280 0007228 359.8500   0.2672 14.80092274150276
SWIFT                   
1 28485U 04047A   24351.13648161  .00026223  00000+0  90106-3 0  9990
2 28485  20.5574 310.6277 0006808 128.2640 231.8411 15.28177858102109
CALIPSO                 
1 29108U 06016B   24350.92300667  .00002705  00000+0  48930-3 0  9990
2 29108  98.4357 337.6639 0001254  95.6709 264.4637 14.67234294992580
HINODE (SOLAR-B)        
1 29479U 06041A   24350.79249338  .00001592  00000+0  29008-3 0  9999
2 29479  98.0820   3.6254 0016813 223.6905 136.2969 14.67324310974407
SHIJIAN-6 02A (SJ-6 02A)
1 29505U 06046A   24351.13780529  .00009636  00000+0  63375-3 0  9997
2 29505  97.7040  18.1871 0002709 193.6179 166.4976 15.07785510989532
SHIJIAN-6 02B (SJ-6 02B)
1 29506U 06046B   24351.13710188  .00002926  00000+0  24810-3 0  9998
2 29506  97.7223  14.3438 0002471  75.8674 284.2823 14.98721922988579
FGRST (GLAST)           
1 33053U 08029A   24350.80430813  .00006162  00000+0  26880-3 0  9995
2 33053  25.5840  39.8273 0009468 359.0946   0.9573 15.19289579912209
SDO                     
1 36395U 10005A   24350.45030581 -.00000089  00000+0  00000+0 0  9998
2 36395  33.5022  94.7671 0001809 177.7735 232.3461  1.00270568 54539
CRYOSAT 2               
1 36508U 10013A   24350.89167267  .00000433  00000+0  10675-3 0  9998
2 36508  92.0158 144.9628 0003505  64.1789 295.9779 14.51915700778521
X-SAT                   
1 37389U 11015C   24351.08242463  .00000314  00000+0  15167-3 0  9992
2 37389  98.3006 345.1413 0014657 148.7894 211.4160 14.24904241710131
GCOM-W1 (SHIZUKU)       
1 38337U 12025A   24350.44755778  .00001499  00000+0  34340-3 0  9994
2 38337  98.2229 287.8825 0001613  67.6572  71.1045 14.57021821669114
NUSTAR                  
1 38358U 12031A   24350.91667824  .00019730  00000+0  14585-2 0  9995
2 38358   6.0249 162.5965 0010210 273.5411 148.4160 15.00425883681589
NEOSSAT                 
1 39089U 13009D   24350.78398203  .00000459  00000+0  17439-3 0  9990
2 39089  98.4007 173.4273 0012203  81.9933 278.2638 14.35432992618055
BRITE-AUSTRIA           
1 39091U 13009F   24350.28325053  .00000526  00000+0  19505-3 0  9992
2 39091  98.3817 172.9227 0011421  80.2394 280.0081 14.36108251618268
IRIS                    
1 39197U 13033A   24350.63874388  .00003365  00000+0  41381-3 0  9996
2 39197  97.9541 180.4663 0024690 312.7579  47.1557 14.83474516618972
HISAKI (SPRINT-A)       
1 39253U 13049A   24350.87118152  .00000187  00000+0  16198-3 0  9999
2 39253  29.7191 127.4972 0137019 251.9254 106.6348 13.55455640556972
CASSIOPE                
1 39265U 13055A   24350.81277303  .00034736  00000+0  62874-3 0  9996
2 39265  80.9466 351.5940 0445519  57.5348 306.8122 14.83906709585194
STSAT-3                 
1 39422U 13066G   24351.14057680  .00006110  00000+0  52524-3 0  9990
2 39422  97.5416 323.7381 0022035 107.3229 253.0406 14.97578265602021
SWARM B                 
1 39451U 13067A   24350.87924950  .00006094  00000+0  25752-3 0  9999
2 39451  87.7489 148.1801 0002533  83.6243 276.5291 15.23053298599620
SWARM A                 
1 39452U 13067B   24350.85992774  .00012291  00000+0  33242-3 0  9996
2 39452  87.3410 257.4317 0003716  84.7550 275.4128 15.37576614621624
SWARM C                 
1 39453U 13067C   24350.85981951  .00012582  00000+0  34032-3 0  9993
2 39453  87.3410 256.0214 0003727  84.4810 275.6868 15.37576390621583
BRITE-CA1 (TORONTO)     
1 40020U 14033L   24351.10141176  .00002913  00000+0  46289-3 0  9999
2 40020  97.9013 122.2655 0080484 230.4196 128.9884 14.70690643561708
OCO 2                   
1 40059U 14035A   24350.89780787  .00001270  00000+0  29192-3 0  9994
2 40059  98.2227 289.0719 0001756  82.5062 277.6336 14.57098404556202
BRITE-PL2 (HEWELIUSZ)   
1 40119U 14049B   24350.75813649  .00004529  00000+0  46289-3 0  9991
2 40119  97.8878  89.9131 0016259 124.0188 236.2577 14.90981823559615
RESURS-P 2              
1 40360U 14087A   24351.01267759  .00144096  00000+0  54617-3 0  9994
2 40360  97.1367  81.3547 0003077 314.5209  45.5811 15.87274342559586
MMS 1                   
1 40482U 15011A   24351.25001157 -.00001021  00000+0  00000+0 0  9995
2 40482  58.0385   0.9317 8925453 154.7544  55.5003  0.28527655 15896
MMS 2                   
1 40483U 15011B   24351.25001157 -.00001021  00000+0  00000+0 0  9996
2 40483  58.0384   0.9320 8925426 154.7533  53.9937  0.28528156 15871
MMS 3                   
1 40484U 15011C   24351.25001157 -.00001021  00000+0  00000+0 0  9997
2 40484  58.0402   0.9304 8925367 154.7541  54.2372  0.28528381 15875
MMS 4                   
1 40485U 15011D   24351.25001157 -.00001021  00000+0  00000+0 0  9998
2 40485  58.0385   0.9331 8924943 154.7492  44.3613  0.28534666 15871
ASTROSAT                
1 40930U 15052A   24350.30220275  .00002961  00000+0  29318-3 0  9997
2 40930   5.9953 141.0804 0007681 128.7226 231.3589 14.80531572498331
DAMPE                   
1 41173U 15078A   24351.14810722  .00002767  00000+0  10254-3 0  9993
2 41173  97.4402 344.2113 0011461 212.2219 147.8321 15.28443107500763
PISAT                   
1 41784U 16059B   24350.78761488  .00002189  00000+0  39539-3 0  9999
2 41784  97.8235   4.5447 0030589 153.3628 206.9156 14.67090071439276
HXMT (HUIYAN)           
1 42758U 17034A   24351.16773820  .00012989  00000+0  60173-3 0  9998
2 42758  43.0145 343.9736 0011659 210.8227 149.1939 15.19947758414498
FLYING LAPTOP           
1 42831U 17042G   24350.91253981  .00004893  00000+0  42801-3 0  9995
2 42831  97.3897 161.6486 0012115 177.4701 182.6585 14.97111975404303
ZHANGHENG 1 (CSES)      
1 43194U 18015C   24351.13106775  .00019624  00000+0  88033-3 0  9997
2 43194  97.6272 136.8950 0005926 278.0055  82.0507 15.21227031381342
SALSAT                  
1 46495U 20068K   24351.18666476  .00012790  00000+0  62643-3 0  9995
2 46495  97.8406 315.9318 0014580  53.8105 306.4474 15.18215258231871
IXPE                    
1 49954U 21121A   24350.91667824  .00008042  00000+0  53036-3 0  9998
2 49954   0.2299 120.2042 0008586 108.6910  97.0497 15.02181025  5666
